{
  "type": "FeatureCollection",
  "features": [
    {
      "type": "Feature",
      "properties": {
        "name": "I-35_Downtown",
        "label": "I-35 (Downtown)"
      },
      "geometry": {
        "type": "LineString",
        "coordinates": [
          [-97.7310, 30.2140],
          [-97.7315, 30.2230],
          [-97.7320, 30.2380],
          [-97.7325, 30.2490],
          [-97.7330, 30.2580],
          [-97.7335, 30.2650],
          [-97.7300, 30.2784],
          [-97.7295, 30.2794],
          [-97.7290, 30.2803],
          [-97.7287, 30.2808],
          [-97.7273, 30.2830],
          [-97.7270, 30.2845],
          [-97.7265, 30.2900],
          [-97.7262, 30.2960],
          [-97.7260, 30.3040],
          [-97.7258, 30.3120],
          [-97.7257, 30.3200]
        ]
      }
    },
    {
      "type": "Feature",
      "properties": {
        "name": "Mopac_Expressway_Downtown",
        "label": "MoPac (Loop 1)"
      },
      "geometry": {
        "type": "LineString",
        "coordinates": [
          [-97.7960, 30.2200],
          [-97.7925, 30.2350],
          [-97.7892, 30.2490],
          [-97.7855, 30.2590],
          [-97.7820, 30.2672],
          [-97.7657, 30.2826],
          [-97.7644, 30.2858],
          [-97.7594, 30.2933],
          [-97.7585, 30.3002],
          [-97.7558, 30.3200],
          [-97.7535, 30.3400],
          [-97.7513, 30.3600],
          [-97.7490, 30.3814]
        ]
      }
    },
    {
      "type": "Feature",
      "properties": {
        "name": "US-183_North",
        "label": "US-183 (Research Blvd)"
      },
      "geometry": {
        "type": "LineString",
        "coordinates": [
          [-97.7340, 30.2700],
          [-97.7332, 30.2850],
          [-97.7320, 30.3050],
          [-97.7300, 30.3250],
          [-97.7290, 30.3450],
          [-97.7285, 30.3650],
          [-97.7285, 30.3800],
          [-97.7290, 30.3950],
          [-97.7300, 30.4100],
          [-97.7310, 30.4250]
        ]
      }
    },
    {
      "type": "Feature",
      "properties": {
        "name": "Loop-360_West",
        "label": "Loop 360 (Capital of Texas Hwy)"
      },
      "geometry": {
        "type": "LineString",
        "coordinates": [
          [-97.8020, 30.2530],
          [-97.8010, 30.2680],
          [-97.8008, 30.2830],
          [-97.8000, 30.2990],
          [-97.7990, 30.3150],
          [-97.7975, 30.3300],
          [-97.7950, 30.3450],
          [-97.7920, 30.3580],
          [-97.7890, 30.3700],
          [-97.7850, 30.3810],
          [-97.7778198,
            30.378124
          ],
          [
            -97.7765735,
            30.379186
          ],
          [
            -97.774979,
            30.380496
          ],
          [
            -97.774692,
            30.380727
          ],
          [
            -97.774263,
            30.381032
          ],
          [
            -97.7739785,
            30.381215
          ],
          [
            -97.7735657,
            30.3814319
          ],
          [
            -97.7720168,
            30.3821836
          ],
          [
            -97.7714251,
            30.3824707
          ],
          [
            -97.7712927,
            30.382535
          ],
          [
            -97.7707177,
            30.3828161
          ],
          [
            -97.7700284,
            30.3831577
          ],
          [
            -97.7678126,
            30.3842613
          ],
          [
            -97.7674592,
            30.38444
          ],
          [
            -97.7670589,
            30.3846647
          ],
          [
            -97.7668052,
            30.3848217
          ],
          [
            -97.7666883,
            30.384894
          ],
          [
            -97.7665677,
            30.384977
          ],
          [
            -97.7664963,
            30.3850261
          ],
          [
            -97.765641,
            30.385633
          ],
          [
            -97.764613,
            30.386412
          ],
          [
            -97.7632746,
            30.3874046
          ],
          [
            -97.763009,
            30.3875665
          ],
          [
            -97.7626898,
            30.3877238
          ],
          [
            -97.7624592,
            30.3878164
          ],
          [
            -97.7621931,
            30.3878951
          ],
          [
            -97.762148,
            30.387913
          ],
          [
            -97.76188,
            30.387985
          ],
          [
            -97.761606,
            30.388037
          ],
          [
            -97.7613541,
            30.3880524
          ],
          [
            -97.7600078,
            30.3880312
          ],
          [
            -97.7598896,
            30.3880293
          ],
          [
            -97.759777,
            30.3880316
          ],
          [
            -97.757218,
            30.387984
          ],
          [
            -97.756974,
            30.387981
          ],
          [
            -97.756716,
            30.387978
          ],
          [
            -97.755379,
            30.387976
          ],
          [
            -97.754694,
            30.387992
          ],
          [
            -97.7535245,
            30.388065
          ],
          [
            -97.751681,
            30.3882429
          ],
          [
            -97.7501052,
            30.3883824
          ],
          [
            -97.7484982,
            30.3885312
          ]
        ]
      }
    },
    {
      "type": "Feature",
      "properties": {
        "name": "Congress_Ave_Downtown",
        "label": "Congress Ave (Downtown)"
      },
      "geometry": {
        "type": "LineString",
        "coordinates": [
          [-97.7431, 30.2520],
          [-97.7432, 30.2560],
          [-97.7435, 30.2620],
          [-97.7435056, 30.2662030],
          [-97.7431938, 30.2670367],
          [-97.7431271, 30.2672150],
          [-97.7428453, 30.2679680],
          [-97.7424976, 30.2688977],
          [-97.7421493, 30.2698375],
          [-97.7421173, 30.2699140],
          [-97.7419, 30.2710],
          [-97.7416, 30.2725],
          [-97.7414, 30.2740],
          [-97.7412, 30.2760]
        ]
      }
    }
  ]
}