{"type":"FeatureCollection","features":[{"type":"Feature","properties":{"name":"I-35 / 51st St","corridor":"I-35_Downtown","risk":"high","radius_m":800},"geometry":{"type":"Point","coordinates":[-97.7341,30.2850]}},{"type":"Feature","properties":{"name":"MoPac / 360 Interchange","corridor":"Mopac_Expressway_Downtown","risk":"high","radius_m":900},"geometry":{"type":"Point","coordinates":[-97.7930,30.3050]}},{"type":"Feature","properties":{"name":"183 / Research Blvd","corridor":"US-183_North","risk":"high","radius_m":850},"geometry":{"type":"Point","coordinates":[-97.7232,30.3877]}},{"type":"Feature","properties":{"name":"Loop 360 / Bee Caves","corridor":"Loop-360_West","risk":"medium","radius_m":700},"geometry":{"type":"Point","coordinates":[-97.7998,30.3278]}},{"type":"Feature","properties":{"name":"Congress / 6th St","corridor":"Congress_Ave_Downtown","risk":"medium","radius_m":600},"geometry":{"type":"Point","coordinates":[-97.7431,30.2672]}}]}