{"type":"FeatureCollection","features":[{"type":"Feature","properties":{"name":"Q2 Stadium","event_type":"austin_fc","capacity":20738,"corridor_impact":"US-183_North"},"geometry":{"type":"Point","coordinates":[-97.7188,30.3872]}},{"type":"Feature","properties":{"name":"DKR-Texas Memorial Stadium","event_type":"ut_football","capacity":100119,"corridor_impact":"I-35_Downtown"},"geometry":{"type":"Point","coordinates":[-97.7320,30.2836]}},{"type":"Feature","properties":{"name":"Moody Center","event_type":"concert","capacity":15000,"corridor_impact":"I-35_Downtown"},"geometry":{"type":"Point","coordinates":[-97.7280,30.2850]}},{"type":"Feature","properties":{"name":"Zilker Park","event_type":"festival","capacity":75000,"corridor_impact":"Mopac_Expressway_Downtown"},"geometry":{"type":"Point","coordinates":[-97.7730,30.2669]}},{"type":"Feature","properties":{"name":"Austin Convention Center","event_type":"festival","capacity":40000,"corridor_impact":"Congress_Ave_Downtown"},"geometry":{"type":"Point","coordinates":[-97.7402,30.2628]}}]}